[
  {
    "OBJECT_NAME": "STARLINK-32254",
    "OBJECT_ID": "24144C",
    "EPOCH": "2025-11-11T05:57:59.665536",
    "MEAN_MOTION": 15.30198972,
    "ECCENTRICITY": 0.0001256,
    "INCLINATION": 53.1646,
    "RA_OF_ASC_NODE": 47.4006,
    "ARG_OF_PERICENTER": 59.9124,
    "MEAN_ANOMALY": 300.2001,
    "EPHEMERIS_TYPE": 0,
    "CLASSIFICATION_TYPE": "U",
    "NORAD_CAT_ID": 60427,
    "ELEMENT_SET_NO": 999,
    "REV_AT_EPOCH": 7121,
    "BSTAR": 6.988900000000001e-05,
    "MEAN_MOTION_DOT": 1.711e-05,
    "MEAN_MOTION_DDOT": 0.0,
    "TLE_LINE1": "1 60427U 24144C   25315.24860724  .00001711  00000+0  69889-4 0  9996",
    "TLE_LINE2": "2 60427  53.1646  47.4006 0001256  59.9124 300.2001 15.30198972 71213",
    "COMMENT": "Grouped by shell and plane from TLE"
  },
  {
    "OBJECT_NAME": "STARLINK-32193",
    "OBJECT_ID": "24144D",
    "EPOCH": "2025-11-11T06:13:10.771680",
    "MEAN_MOTION": 15.30188376,
    "ECCENTRICITY": 0.0001586,
    "INCLINATION": 53.1629,
    "RA_OF_ASC_NODE": 47.4654,
    "ARG_OF_PERICENTER": 100.4812,
    "MEAN_ANOMALY": 259.6367,
    "EPHEMERIS_TYPE": 0,
    "CLASSIFICATION_TYPE": "U",
    "NORAD_CAT_ID": 60428,
    "ELEMENT_SET_NO": 999,
    "REV_AT_EPOCH": 7121,
    "BSTAR": 0.00020011,
    "MEAN_MOTION_DOT": 5.57e-05,
    "MEAN_MOTION_DDOT": 0.0,
    "TLE_LINE1": "1 60428U 24144D   25315.25915245  .00005570  00000+0  20011-3 0  9997",
    "TLE_LINE2": "2 60428  53.1629  47.4654 0001586 100.4812 259.6367 15.30188376 71215",
    "COMMENT": "Grouped by shell and plane from TLE"
  },
  {
    "OBJECT_NAME": "STARLINK-32242",
    "OBJECT_ID": "24144E",
    "EPOCH": "2025-11-11T06:02:32.948736",
    "MEAN_MOTION": 15.30192151,
    "ECCENTRICITY": 0.0001122,
    "INCLINATION": 53.1655,
    "RA_OF_ASC_NODE": 47.4201,
    "ARG_OF_PERICENTER": 68.7168,
    "MEAN_ANOMALY": 291.3952,
    "EPHEMERIS_TYPE": 0,
    "CLASSIFICATION_TYPE": "U",
    "NORAD_CAT_ID": 60429,
    "ELEMENT_SET_NO": 999,
    "REV_AT_EPOCH": 7121,
    "BSTAR": 6.584e-05,
    "MEAN_MOTION_DOT": 1.591e-05,
    "MEAN_MOTION_DDOT": 0.0,
    "TLE_LINE1": "1 60429U 24144E   25315.25177024  .00001591  00000+0  65840-4 0  9992",
    "TLE_LINE2": "2 60429  53.1655  47.4201 0001122  68.7168 291.3952 15.30192151 71218",
    "COMMENT": "Grouped by shell and plane from TLE"
  },
  {
    "OBJECT_NAME": "STARLINK-32196",
    "OBJECT_ID": "24144F",
    "EPOCH": "2025-11-11T05:53:23.226144",
    "MEAN_MOTION": 15.30255011,
    "ECCENTRICITY": 0.0002015,
    "INCLINATION": 53.1638,
    "RA_OF_ASC_NODE": 47.3795,
    "ARG_OF_PERICENTER": 68.0194,
    "MEAN_ANOMALY": 292.1021,
    "EPHEMERIS_TYPE": 0,
    "CLASSIFICATION_TYPE": "U",
    "NORAD_CAT_ID": 60430,
    "ELEMENT_SET_NO": 999,
    "REV_AT_EPOCH": 7117,
    "BSTAR": 0.0,
    "MEAN_MOTION_DOT": -0.00025472,
    "MEAN_MOTION_DDOT": 0.0,
    "TLE_LINE1": "1 60430U 24144F   25315.24540771 -.00025472  00000+0 -84930-3 0  9992",
    "TLE_LINE2": "2 60430  53.1638  47.3795 0002015  68.0194 292.1021 15.30255011 71178",
    "COMMENT": "Grouped by shell and plane from TLE"
  },
  {
    "OBJECT_NAME": "STARLINK-32232",
    "OBJECT_ID": "24144G",
    "EPOCH": "2025-11-11T06:08:37.609440",
    "MEAN_MOTION": 15.30196149,
    "ECCENTRICITY": 0.0001292,
    "INCLINATION": 53.1621,
    "RA_OF_ASC_NODE": 47.4466,
    "ARG_OF_PERICENTER": 73.9885,
    "MEAN_ANOMALY": 286.1258,
    "EPHEMERIS_TYPE": 0,
    "CLASSIFICATION_TYPE": "U",
    "NORAD_CAT_ID": 60431,
    "ELEMENT_SET_NO": 999,
    "REV_AT_EPOCH": 7117,
    "BSTAR": 4.5314e-05,
    "MEAN_MOTION_DOT": 9.83e-06,
    "MEAN_MOTION_DDOT": 0.0,
    "TLE_LINE1": "1 60431U 24144G   25315.25599085  .00000983  00000+0  45314-4 0  9998",
    "TLE_LINE2": "2 60431  53.1621  47.4466 0001292  73.9885 286.1258 15.30196149 71176",
    "COMMENT": "Grouped by shell and plane from TLE"
  },
  {
    "OBJECT_NAME": "STARLINK-32246",
    "OBJECT_ID": "24144H",
    "EPOCH": "2025-11-11T05:51:54.559872",
    "MEAN_MOTION": 15.30187024,
    "ECCENTRICITY": 7.47e-05,
    "INCLINATION": 53.1642,
    "RA_OF_ASC_NODE": 47.3715,
    "ARG_OF_PERICENTER": 94.309,
    "MEAN_ANOMALY": 265.7997,
    "EPHEMERIS_TYPE": 0,
    "CLASSIFICATION_TYPE": "U",
    "NORAD_CAT_ID": 60432,
    "ELEMENT_SET_NO": 999,
    "REV_AT_EPOCH": 7117,
    "BSTAR": 0.00011403,
    "MEAN_MOTION_DOT": 3.019e-05,
    "MEAN_MOTION_DDOT": 0.0,
    "TLE_LINE1": "1 60432U 24144H   25315.24438148  .00003019  00000+0  11403-3 0  9994",
    "TLE_LINE2": "2 60432  53.1642  47.3715 0000747  94.3090 265.7997 15.30187024 71170",
    "COMMENT": "Grouped by shell and plane from TLE"
  },
  {
    "OBJECT_NAME": "STARLINK-32183",
    "OBJECT_ID": "24144J",
    "EPOCH": "2025-11-11T07:22:55.204032",
    "MEAN_MOTION": 15.30208574,
    "ECCENTRICITY": 6.54e-05,
    "INCLINATION": 53.1594,
    "RA_OF_ASC_NODE": 47.0561,
    "ARG_OF_PERICENTER": 79.6836,
    "MEAN_ANOMALY": 280.4239,
    "EPHEMERIS_TYPE": 0,
    "CLASSIFICATION_TYPE": "U",
    "NORAD_CAT_ID": 60433,
    "ELEMENT_SET_NO": 999,
    "REV_AT_EPOCH": 7118,
    "BSTAR": 0.00013222,
    "MEAN_MOTION_DOT": 3.56e-05,
    "MEAN_MOTION_DDOT": 0.0,
    "TLE_LINE1": "1 60433U 24144J   25315.30758338  .00003560  00000+0  13222-3 0  9990",
    "TLE_LINE2": "2 60433  53.1594  47.0561 0000654  79.6836 280.4239 15.30208574 71182",
    "COMMENT": "Grouped by shell and plane from TLE"
  },
  {
    "OBJECT_NAME": "STARLINK-32233",
    "OBJECT_ID": "24144K",
    "EPOCH": "2025-11-11T07:09:14.052384",
    "MEAN_MOTION": 15.30205817,
    "ECCENTRICITY": 7.61e-05,
    "INCLINATION": 53.1611,
    "RA_OF_ASC_NODE": 46.9967,
    "ARG_OF_PERICENTER": 85.9067,
    "MEAN_ANOMALY": 274.2021,
    "EPHEMERIS_TYPE": 0,
    "CLASSIFICATION_TYPE": "U",
    "NORAD_CAT_ID": 60434,
    "ELEMENT_SET_NO": 999,
    "REV_AT_EPOCH": 7118,
    "BSTAR": 8.532900000000001e-05,
    "MEAN_MOTION_DOT": 2.17e-05,
    "MEAN_MOTION_DDOT": 0.0,
    "TLE_LINE1": "1 60434U 24144K   25315.29807931  .00002170  00000+0  85329-4 0  9997",
    "TLE_LINE2": "2 60434  53.1611  46.9967 0000761  85.9067 274.2021 15.30205817 71183",
    "COMMENT": "Grouped by shell and plane from TLE"
  },
  {
    "OBJECT_NAME": "STARLINK-32222",
    "OBJECT_ID": "24144L",
    "EPOCH": "2025-11-11T05:39:44.994816",
    "MEAN_MOTION": 15.3025776,
    "ECCENTRICITY": 2.56e-05,
    "INCLINATION": 53.1642,
    "RA_OF_ASC_NODE": 47.32,
    "ARG_OF_PERICENTER": 48.139,
    "MEAN_ANOMALY": 311.9633,
    "EPHEMERIS_TYPE": 0,
    "CLASSIFICATION_TYPE": "U",
    "NORAD_CAT_ID": 60435,
    "ELEMENT_SET_NO": 999,
    "REV_AT_EPOCH": 7117,
    "BSTAR": 0.0,
    "MEAN_MOTION_DOT": -0.00011255,
    "MEAN_MOTION_DDOT": 0.0,
    "TLE_LINE1": "1 60435U 24144L   25315.23593744 -.00011255  00000+0 -36781-3 0  9999",
    "TLE_LINE2": "2 60435  53.1642  47.3200 0000256  48.1390 311.9633 15.30257760 71173",
    "COMMENT": "Grouped by shell and plane from TLE"
  },
  {
    "OBJECT_NAME": "STARLINK-32229",
    "OBJECT_ID": "24144M",
    "EPOCH": "2025-11-11T07:04:41.576160",
    "MEAN_MOTION": 15.30136182,
    "ECCENTRICITY": 0.0001563,
    "INCLINATION": 53.1645,
    "RA_OF_ASC_NODE": 46.9796,
    "ARG_OF_PERICENTER": 86.3855,
    "MEAN_ANOMALY": 273.7324,
    "EPHEMERIS_TYPE": 0,
    "CLASSIFICATION_TYPE": "U",
    "NORAD_CAT_ID": 60436,
    "ELEMENT_SET_NO": 999,
    "REV_AT_EPOCH": 7118,
    "BSTAR": 0.00046837,
    "MEAN_MOTION_DOT": 0.00013511,
    "MEAN_MOTION_DDOT": 0.0,
    "TLE_LINE1": "1 60436U 24144M   25315.29492565  .00013511  00000+0  46837-3 0  9993",
    "TLE_LINE2": "2 60436  53.1645  46.9796 0001563  86.3855 273.7324 15.30136182 71181",
    "COMMENT": "Grouped by shell and plane from TLE"
  },
  {
    "OBJECT_NAME": "STARLINK-32241",
    "OBJECT_ID": "24144N",
    "EPOCH": "2025-11-11T07:03:10.093248",
    "MEAN_MOTION": 15.30199485,
    "ECCENTRICITY": 7.45e-05,
    "INCLINATION": 53.1635,
    "RA_OF_ASC_NODE": 46.9727,
    "ARG_OF_PERICENTER": 88.6741,
    "MEAN_ANOMALY": 271.4345,
    "EPHEMERIS_TYPE": 0,
    "CLASSIFICATION_TYPE": "U",
    "NORAD_CAT_ID": 60437,
    "ELEMENT_SET_NO": 999,
    "REV_AT_EPOCH": 7118,
    "BSTAR": 3.1107000000000006e-05,
    "MEAN_MOTION_DOT": 5.63e-06,
    "MEAN_MOTION_DDOT": 0.0,
    "TLE_LINE1": "1 60437U 24144N   25315.29386682  .00000563  00000+0  31107-4 0  9994",
    "TLE_LINE2": "2 60437  53.1635  46.9727 0000745  88.6741 271.4345 15.30199485 71188",
    "COMMENT": "Grouped by shell and plane from TLE"
  },
  {
    "OBJECT_NAME": "STARLINK-32240",
    "OBJECT_ID": "24144P",
    "EPOCH": "2025-11-11T08:00:03.000384",
    "MEAN_MOTION": 15.30360504,
    "ECCENTRICITY": 0.0001044,
    "INCLINATION": 53.1581,
    "RA_OF_ASC_NODE": 46.7638,
    "ARG_OF_PERICENTER": 102.4955,
    "MEAN_ANOMALY": 126.8267,
    "EPHEMERIS_TYPE": 0,
    "CLASSIFICATION_TYPE": "U",
    "NORAD_CAT_ID": 60438,
    "ELEMENT_SET_NO": 999,
    "REV_AT_EPOCH": 583,
    "BSTAR": 0.0,
    "MEAN_MOTION_DOT": -0.00206603,
    "MEAN_MOTION_DDOT": 0.0,
    "TLE_LINE1": "1 60438U 24144P   25315.33336806 -.00206603  00000+0 -71227-2 0  9993",
    "TLE_LINE2": "2 60438  53.1581  46.7638 0001044 102.4955 126.8267 15.30360504  5830",
    "COMMENT": "Grouped by shell and plane from TLE"
  },
  {
    "OBJECT_NAME": "STARLINK-32231",
    "OBJECT_ID": "24144Q",
    "EPOCH": "2025-11-11T06:49:29.461728",
    "MEAN_MOTION": 15.30190932,
    "ECCENTRICITY": 0.0001094,
    "INCLINATION": 53.1606,
    "RA_OF_ASC_NODE": 46.9079,
    "ARG_OF_PERICENTER": 78.0075,
    "MEAN_ANOMALY": 282.1048,
    "EPHEMERIS_TYPE": 0,
    "CLASSIFICATION_TYPE": "U",
    "NORAD_CAT_ID": 60439,
    "ELEMENT_SET_NO": 999,
    "REV_AT_EPOCH": 7028,
    "BSTAR": 0.0001264,
    "MEAN_MOTION_DOT": 3.385e-05,
    "MEAN_MOTION_DDOT": 0.0,
    "TLE_LINE1": "1 60439U 24144Q   25315.28436877  .00003385  00000+0  12640-3 0  9992",
    "TLE_LINE2": "2 60439  53.1606  46.9079 0001094  78.0075 282.1048 15.30190932 70286",
    "COMMENT": "Grouped by shell and plane from TLE"
  }
]